H1 CPF 01  gfz 2022 09 29 12  7722 terrasarx 
H2 0702601  6201 31698    2022 09 29 12 59 42 2022 10 04 00 00 42   120 1 1  0 0 0
H9
10 0 59853  72702.000000  0   -5795967.524   3721411.768   -155504.210
10 0 59853  72822.000000  0   -5631930.450   3827068.454  -1056557.134
10 0 59853  72942.000000  0   -5368306.671   3862147.583  -1939027.847
10 0 59853  73062.000000  0   -5011031.994   3824400.088  -2787422.047
10 0 59853  73182.000000  0   -4567707.368   3712975.996  -3586876.623
10 0 59853  73302.000000  0   -4047430.032   3528459.796  -4323422.306
10 0 59853  73422.000000  0   -3460599.396   3272876.978  -4984225.410
10 0 59853  73542.000000  0   -2818701.950   2949671.675  -5557804.948
10 0 59853  73662.000000  0   -2134082.731   2563657.617  -6034223.041
10 0 59853  73782.000000  0   -1419704.656   2120942.618  -6405247.525
10 0 59853  73902.000000  0    -688902.566   1628828.205  -6664481.792
10 0 59853  74022.000000  0      44862.484   1095688.195  -6807464.187
10 0 59853  74142.000000  0     768245.380    530827.228  -6831736.108
10 0 59853  74262.000000  0    1468254.049    -55678.232  -6736881.470
10 0 59853  74382.000000  0    2132478.160   -653156.086  -6524532.025
10 0 59853  74502.000000  0    2749303.683  -1250527.545  -6198342.158
10 0 59853  74622.000000  0    3308113.417  -1836507.359  -5763932.640
10 0 59853  74742.000000  0    3799469.326  -2399812.000  -5228804.513
10 0 59853  74862.000000  0    4215276.211  -2929375.683  -4602221.159
10 0 59853  74982.000000  0    4548919.509  -3414567.855  -3895057.658
10 0 59853  75102.000000  0    4795376.620  -3845407.170  -3119622.052
10 0 59853  75222.000000  0    4951300.444  -4212769.383  -2289448.637
10 0 59853  75342.000000  0    5015070.851  -4508583.301  -1419064.937
10 0 59853  75462.000000  0    4986812.781  -4726010.432   -523737.198
10 0 59853  75582.000000  0    4868378.491  -4859603.321    380801.907
10 0 59853  75702.000000  0    4663294.519  -4905437.181   1278636.920
10 0 59853  75822.000000  0    4376674.680  -4861210.995   2153958.843
10 0 59853  75942.000000  0    4015100.305  -4726315.941   2991351.860
10 0 59853  76062.000000  0    3586472.619  -4501869.815   3776072.442
10 0 59853  76182.000000  0    3099839.134  -4190715.904   4494314.774
10 0 59853  76302.000000  0    2565199.893  -3797386.338   5133456.417
10 0 59853  76422.000000  0    1993298.725  -3328032.156   5682279.725
10 0 59853  76542.000000  0    1395403.656  -2790321.458   6131166.511
10 0 59853  76662.000000  0     783081.865  -2193308.044   6472260.866
10 0 59853  76782.000000  0     167974.195  -1547274.890   6699600.272
10 0 59853  76902.000000  0    -438426.190   -863554.548   6809213.812
10 0 59853  77022.000000  0   -1024987.451   -154328.552   6799187.421
10 0 59853  77142.000000  0   -1581142.534    567589.590   6669694.978
10 0 59853  77262.000000  0   -2097078.929   1288985.309   6422995.385
10 0 59853  77382.000000  0   -2563911.966   1996483.865   6063395.669
10 0 59853  77502.000000  0   -2973838.849   2676797.880   5597180.677
10 0 59853  77622.000000  0   -3320271.622   3316978.287   5032509.832
10 0 59853  77742.000000  0   -3597947.037   3904663.528   4379280.436
10 0 59853  77862.000000  0   -3803010.194   4428323.124   3648959.347
10 0 59853  77982.000000  0   -3933070.028   4877490.089   2854384.416
10 0 59853  78102.000000  0   -3987225.341   5242976.558   2009538.024
10 0 59853  78222.000000  0   -3966059.498   5517066.213   1129297.616
10 0 59853  78342.000000  0   -3871605.523   5693680.063    229168.980
10 0 59853  78462.000000  0   -3707282.320   5768512.150   -674994.717
10 0 59853  78582.000000  0   -3477800.899   5739128.875  -1567282.815
10 0 59853  78702.000000  0   -3189044.231   5605029.042  -2432017.229
10 0 59853  78822.000000  0   -2847922.676   5367664.466  -3254034.390
10 0 59853  78942.000000  0   -2462212.747   5030421.607  -4018954.476
10 0 59853  79062.000000  0   -2040381.761   4598564.528  -4713432.888
10 0 59853  79182.000000  0   -1591402.780   4079142.370  -5325387.521
10 0 59853  79302.000000  0   -1124565.712   3480865.947  -5844201.137
10 0 59853  79422.000000  0    -649286.865   2813953.795  -6260897.125
10 0 59853  79542.000000  0    -174921.107   2089951.059  -6568283.613
10 0 59853  79662.000000  0     289418.310   1321527.505  -6761065.706
10 0 59853  79782.000000  0     735029.954    522256.999  -6835927.941
10 0 59853  79902.000000  0    1153783.626   -293618.383  -6791585.360
10 0 59853  80022.000000  0    1538264.836  -1111437.392  -6628802.084
10 0 59853  80142.000000  0    1881902.429  -1916375.974  -6350378.549
10 0 59853  80262.000000  0    2179079.352  -2693708.889  -5961109.087
10 0 59853  80382.000000  0    2425224.299  -3429074.380  -5467709.577
10 0 59853  80502.000000  0    2616883.704  -4108740.184  -4878712.846
10 0 59853  80622.000000  0    2751770.934  -4719861.359  -4204330.053
10 0 59853  80742.000000  0    2828792.307  -5250726.080  -3456284.531
10 0 59853  80862.000000  0    2848049.632  -5690988.415  -2647617.590
10 0 59853  80982.000000  0    2810818.616  -6031879.528  -1792465.995
10 0 59853  81102.000000  0    2719503.803  -6266392.522   -905816.375
10 0 59853  81222.000000  0    2577568.658  -6389435.623     -3238.826
10 0 59853  81342.000000  0    2389442.683  -6397947.168    899392.864
10 0 59853  81462.000000  0    2160409.157  -6290971.803   1786187.806
10 0 59853  81582.000000  0    1896474.765  -6069693.894   2641528.230
10 0 59853  81702.000000  0    1604224.754  -5737426.043   3450352.854
10 0 59853  81822.000000  0    1290668.035  -5299555.446   4198427.980
10 0 59853  81942.000000  0     963075.954  -4763449.760   4872601.061
10 0 59853  82062.000000  0     628819.042  -4138325.707   5461033.647
10 0 59853  82182.000000  0     295204.474  -3435080.530   5953408.469
10 0 59853  82302.000000  0     -30680.074  -2666091.923   6341105.109
10 0 59853  82422.000000  0    -342114.010  -1844993.872   6617343.649
10 0 59853  82542.000000  0    -632879.561   -986432.061   6777297.110
10 0 59853  82662.000000  0    -897384.018   -105801.043   6818171.857
10 0 59853  82782.000000  0   -1130766.288    781032.678   6739253.693
10 0 59853  82902.000000  0   -1328985.767   1658016.187   6541919.190
10 0 59853  83022.000000  0   -1488892.146   2509199.912   6229613.190
10 0 59853  83142.000000  0   -1608275.796   3319027.799   5807792.492
10 0 59853  83262.000000  0   -1685897.484   4072623.199   5283835.589
10 0 59853  83382.000000  0   -1721496.719   4756066.153   4666920.592
10 0 59853  83502.000000  0   -1715779.462   5356657.733   3967869.913
10 0 59853  83622.000000  0   -1670383.935   5863164.457   3198963.936
10 0 59853  83742.000000  0   -1587827.088   6266037.476   2373726.525
10 0 59853  83862.000000  0   -1471431.364   6557602.238   1506685.263
10 0 59853  83982.000000  0   -1325232.170   6732212.806    613110.619
10 0 59853  84102.000000  0   -1153869.801   6786366.181   -291259.515
10 0 59853  84222.000000  0    -962468.686   6718775.965  -1190505.592
10 0 59853  84342.000000  0    -756505.552   6530399.187  -2068818.204
10 0 59853  84462.000000  0    -541671.974   6224414.793  -2910784.071
10 0 59853  84582.000000  0    -323734.896   5806159.387  -3701659.901
10 0 59853  84702.000000  0    -108397.663   5283023.062  -4427631.295
10 0 59853  84822.000000  0      98834.895   4664306.594  -5076051.960
10 0 59853  84942.000000  0     292784.360   3961044.579  -5635658.262
10 0 59853  85062.000000  0     468716.649   3185798.498  -6096756.715
10 0 59853  85182.000000  0     622446.913   2352424.530  -6451381.023
10 0 59853  85302.000000  0     750430.042   1475822.741  -6693417.836
10 0 59853  85422.000000  0     849835.575    571671.747  -6818701.931
10 0 59853  85542.000000  0     918605.376   -343847.926  -6825080.351
10 0 59853  85662.000000  0     955493.641  -1254338.014  -6712444.810
10 0 59853  85782.000000  0     960088.540  -2143468.404  -6482731.528
10 0 59853  85902.000000  0     932816.045  -2995261.446  -6139892.378
10 0 59853  86022.000000  0     874925.293  -3794375.212  -5689836.550
10 0 59853  86142.000000  0     788454.791  -4526379.316  -5140337.726
10 0 59853  86262.000000  0     676181.806  -5178016.801  -4500910.795
10 0 59853  86382.000000  0     541554.066  -5737450.492  -3782658.745
10 0 59854    102.000000  0     388605.180  -6194487.649  -2998088.762
10 0 59854    222.000000  0     221855.588  -6540777.022  -2160901.112
10 0 59854    342.000000  0      46201.137  -6769975.018  -1285752.945
10 0 59854    462.000000  0    -133208.715  -6877874.269   -387999.779
10 0 59854    582.000000  0    -311099.912  -6862490.409    516578.719
10 0 59854    702.000000  0    -482206.843  -6724105.528   1412062.648
10 0 59854    822.000000  0    -641406.086  -6465266.979   2282680.919
10 0 59854    942.000000  0    -783847.332  -6090739.661   3113098.815
10 0 59854   1062.000000  0    -905076.858  -5607412.017   3888696.843
10 0 59854   1182.000000  0   -1001151.975  -5024160.238   4595832.181
10 0 59854   1302.000000  0   -1068743.702  -4351675.976   5222080.234
10 0 59854   1422.000000  0   -1105223.933  -3602261.270   5756452.766
10 0 59854   1542.000000  0   -1108736.618  -2789593.158   6189588.510
10 0 59854   1662.000000  0   -1078249.981  -1928465.449   6513910.111
10 0 59854   1782.000000  0   -1013589.810  -1034516.084   6723749.659
10 0 59854   1902.000000  0    -915454.386   -123941.056   6815443.049
10 0 59854   2022.000000  0    -785410.117    786799.664   6787389.830
10 0 59854   2142.000000  0    -625866.435   1681279.191   6640079.776
10 0 59854   2262.000000  0    -440030.999   2543399.595   6376084.781
10 0 59854   2382.000000  0    -231846.322   3357681.452   6000016.677
10 0 59854   2502.000000  0      -5909.253   4109543.456   5518451.625
10 0 59854   2622.000000  0     232625.877   4785567.135   4939820.693
10 0 59854   2742.000000  0     478159.422   5373743.237   4274268.962
99
